GLOBALSTAR M068         
1 32266U 07048D   25065.48516222 -.00000089  00000+0  81039-4 0  9998
2 32266  51.9865 255.3273 0000039 186.9248 192.0986 12.62816389804588
GLOBALSTAR M079         
1 37188U 10054A   25066.44319220 -.00000105  00000+0 -45816-5 0  9997
2 37188  52.0028  89.5108 0000618  91.0922  50.3751 12.62271501663604
GLOBALSTAR M074         
1 37189U 10054B   25066.47115875 -.00000106  00000+0 -14696-4 0  9993
2 37189  52.0002  88.7648 0000481 130.8003  16.7900 12.62267037664216
GLOBALSTAR M076         
1 37190U 10054C   25066.41567088 -.00000101  00000+0  14959-4 0  9992
2 37190  52.0017  89.0912 0000765 116.4518  21.7311 12.62278330663925
GLOBALSTAR M077         
1 37191U 10054D   25066.40792248 -.00000104  00000+0 -70713-6 0  9996
2 37191  52.0082  45.9445 0000390  88.7743  71.7277 12.62271295664295
GLOBALSTAR M075         
1 37192U 10054E   25066.16667726 -.00000103  00000+0  24868-5 0  9999
2 37192  51.9938 132.1655 0000563 118.9886 266.7145 12.62262126662967
GLOBALSTAR M073         
1 37193U 10054F   25066.43624089 -.00000097  00000+0  39847-4 0  9999
2 37193  52.0071  45.0862 0000504  90.0879  78.9427 12.62263937664988
GLOBALSTAR M083         
1 37739U 11033A   25066.36716755 -.00000079  00000+0  14046-3 0  9990
2 37739  51.9888 354.1673 0000624  59.0731  97.5112 12.62260046633990
GLOBALSTAR M088         
1 37740U 11033B   25066.26475894 -.00000074  00000+0  16392-3 0  9998
2 37740  51.9711 260.0572 0000857  81.9130  89.4343 12.62263914629522
GLOBALSTAR M091         
1 37741U 11033C   25066.48685145 -.00000078  00000+0  14607-3 0  9996
2 37741  51.9980 222.7532 0000845  80.5679 319.6505 12.62265614630341
GLOBALSTAR M085         
1 37742U 11033D   25065.70992571 -.00000082  00000+0  12106-3 0  9992
2 37742  51.9860 176.2477 0000708  94.3063  73.7571 12.62265944630750
GLOBALSTAR M081         
1 37743U 11033E   25066.59369087 -.00000096  00000+0  43296-4 0  9991
2 37743  51.9951 176.2796 0000893 100.5585   5.9548 12.62261298631019
GLOBALSTAR M089         
1 37744U 11033F   25066.47420918 -.00000093  00000+0  58180-4 0  9995
2 37744  51.9921 130.8920 0000743 132.3053 330.7273 12.62266978631844
GLOBALSTAR M084         
1 38040U 11080A   25066.26162095 -.00000082  00000+0  12183-3 0  9993
2 38040  52.0039 358.7715 0000569 105.3992  51.2246 12.62262990609791
GLOBALSTAR M080         
1 38041U 11080B   25066.14523757 -.00000090  00000+0  75329-4 0  9998
2 38041  52.0091   0.6987 0000844 107.8522 358.3920 12.62277591609902
GLOBALSTAR M082         
1 38042U 11080C   25066.40994730 -.00000071  00000+0  18282-3 0  9994
2 38042  52.0089 315.3288 0000688  39.5998 131.6881 12.62263515610646
GLOBALSTAR M092         
1 38043U 11080D   25066.37128433 -.00000106  00000+0 -99767-5 0  9999
2 38043  52.0094  45.8118 0000277 102.3998  13.4373 12.62273036609092
GLOBALSTAR M090         
1 38044U 11080E   25066.43660065 -.00000075  00000+0  16321-3 0  9996
2 38044  51.9895 309.1883 0000777  63.9720 107.5215 12.62267654610760
GLOBALSTAR M086         
1 38045U 11080F   25066.38356519 -.00000078  00000+0  14658-3 0  9991
2 38045  51.9908 309.8927 0001620  86.9536  83.8434 12.62267612610707
GLOBALSTAR M097         
1 39072U 13005A   25066.37263671 -.00000081  00000+0  12921-3 0  9991
2 39072  52.0027 224.3667 0001002  89.5139 270.5843 12.62270842557951
GLOBALSTAR M093         
1 39073U 13005B   25066.42494286 -.00000079  00000+0  13769-3 0  9994
2 39073  51.9796 217.6698 0000968  90.1393 269.9584 12.62262324557918
GLOBALSTAR M094         
1 39074U 13005C   25066.42526162 -.00000099  00000+0  28879-4 0  9995
2 39074  51.9950 131.9522 0000704  92.7136 267.3811 12.62268790559523
GLOBALSTAR M096         
1 39075U 13005D   25066.43851923 -.00000091  00000+0  69321-4 0  9992
2 39075  52.0066 180.3467 0000833  89.2970 270.7992 12.62268887558445
GLOBALSTAR M078         
1 39076U 13005E   25066.25307316 -.00000085  00000+0  10530-3 0  9995
2 39076  51.9857 265.5573 0000700  12.1984 347.8899 12.62259902557257
GLOBALSTAR M095         
1 39077U 13005F   25065.72566938 -.00000081  00000+0  12518-3 0  9998
2 39077  51.9782 264.4143 0000956  52.3986 307.6967 12.62267505556838
GLOBALSTAR M087         
1 52888U 22064A   25066.38981903 -.00000099  00000+0  27224-4 0  9994
2 52888  51.9802  43.7921 0000415  59.9162 300.1745 12.62269134132187
